OBJECT_NAME,OBJECT_ID,EPOCH,MEAN_MOTION,ECCENTRICITY,INCLINATION,RA_OF_ASC_NODE,ARG_OF_PERICENTER,MEAN_ANOMALY,EPHEMERIS_TYPE,CLASSIFICATION_TYPE,NORAD_CAT_ID,ELEMENT_SET_NO,REV_AT_EPOCH,BSTAR,MEAN_MOTION_DOT,MEAN_MOTION_DDOT
INTELSAT 902 (IS-902),2001-039A,2026-07-10T11:39:18.724896,1.00271489,.00044252,6.1741,71.4977,34.7826,306.8480,0,U,26900,999,9092,0,-.279E-5,0
INTELSAT 904 (IS-904),2002-007A,2026-07-10T11:44:40.710048,1.00271875,.00054412,6.9752,68.9011,22.8518,341.3603,0,U,27380,999,5200,0,-.222E-5,0
DIRECTV 5 (TEMPO 1),2002-023A,2026-07-10T16:30:11.130912,1.00271003,.000303,4.9348,75.0161,40.0572,310.9704,0,U,27426,999,8835,0,-.53E-6,0
INTELSAT 905 (IS-905),2002-027A,2026-07-10T18:05:07.006848,1.00271241,.0003543,6.8098,69.5124,44.4113,308.8250,0,U,27438,999,5159,0,.96E-6,0
GALAXY 3C (G-3C),2002-030A,2026-07-10T13:09:16.773984,1.00270931,.0001529,3.7909,77.6727,38.5614,274.7289,0,U,27445,999,4672,0,-.147E-5,0
INTELSAT 906 (IS-906),2002-041A,2026-07-10T19:02:30.649056,1.00272251,.000396,5.8606,72.6308,19.3457,186.4930,0,U,27513,999,8726,0,.16E-6,0
GALAXY 13 (HORIZONS-1),2003-044A,2026-07-10T18:01:29.855136,1.00269324,.0002202,1.4785,83.5644,21.3779,304.0998,0,U,27954,999,4680,0,.14E-5,0
INTELSAT 10-02,2004-022A,2026-07-10T20:26:41.193024,1.00269666,.0000413,0.0513,260.4686,348.4775,345.4882,0,U,28358,999,8079,0,-.3E-7,0
DIRECTV 8,2005-019A,2026-07-10T15:10:20.745120,1.00270880,.0003038,0.0155,71.9429,51.6955,273.4479,0,U,28659,999,7730,0,.11E-6,0
GALAXY 28 (G-28),2005-022A,2026-07-10T16:53:53.858112,1.00271636,.0002092,3.3561,78.6398,37.6231,38.7345,0,U,28702,999,5221,0,-.194E-5,0
GALAXY 16 (G-16),2006-023A,2026-07-10T16:33:18.332064,1.00271406,.0002455,0.0344,117.7497,0.1948,319.9896,0,U,29236,999,7320,0,-.118E-5,0
DIRECTV 9S,2006-043A,2026-07-10T16:32:48.379776,1.00270967,.0005011,2.4784,80.6195,31.8436,323.1465,0,U,29494,999,5161,0,-.107E-5,0
GALAXY 17 (G-17),2007-016B,2026-07-10T13:12:01.512000,1.00271070,.0003581,3.0278,79.6059,31.4253,290.4239,0,U,31307,999,7003,0,-.199E-5,0
INTELSAT 11 (IS-11),2007-044B,2026-07-10T18:50:32.652096,0.99050697,.000401,3.6238,78.3830,99.4349,55.4880,0,U,32253,999,6868,0,-.44E-6,0
HORIZONS-2,2007-063B,2026-07-10T18:23:12.774048,1.00270688,.0003582,2.6599,80.3366,17.4423,32.9149,0,U,32388,999,6805,0,-.247E-5,0
DIRECTV 11,2008-013A,2026-07-10T15:00:26.006400,1.00270644,.0000067,0.0389,213.3746,311.6301,249.4616,0,U,32729,999,4582,0,-.116E-5,0
GALAXY 18 (G-18),2008-024A,2026-07-10T18:09:06.626016,1.00270149,.0002778,0.0250,39.1833,85.6822,313.0900,0,U,32951,999,4608,0,0,0
GALAXY 19 (G-19),2008-045A,2026-07-10T16:33:25.821216,1.00272350,.0002347,0.0540,249.5434,228.4581,321.9550,0,U,33376,999,6513,0,-.13E-5,0
FM-5,2009-034A,2026-07-10T07:39:27.093312,1.00270176,.00003487,0.0334,277.7695,38.0404,1.1277,0,U,35493,999,4687,0,-.189E-5,0
INTELSAT 14 (IS-14),2009-064A,2026-07-10T20:14:04.989120,1.00271550,.0002252,0.0174,24.7376,90.2183,72.3369,0,U,36097,999,6084,0,-.265E-5,0
INTELSAT 15 (IS-15),2009-067A,2026-07-10T20:51:15.126048,1.00271450,.000212,0.0112,53.5658,63.9585,209.2267,0,U,36106,999,4146,0,-.176E-5,0
DIRECTV 12,2009-075A,2026-07-10T09:41:41.732736,1.00270757,.00003948,0.0378,197.5077,15.9281,117.5818,0,U,36131,999,4678,0,-.93E-6,0
INTELSAT 16 (IS-16),2010-006A,2026-07-10T20:05:13.337952,1.00271371,.0002249,0.0121,16.8319,115.4696,21.5567,0,U,36397,999,5989,0,-.236E-5,0
XM-5,2010-053A,2026-07-10T07:21:08.989920,1.00272157,.00018582,0.0614,268.0589,315.7617,59.5021,0,U,37185,999,5771,0,-.12E-6,0
INTELSAT 17 (IS-17),2010-065B,2026-07-10T20:45:45.651744,1.00271827,.0002678,0.0170,89.3725,23.4957,193.3450,0,U,37238,999,5348,0,.7E-7,0
INTELSAT 28 (IS-28),2011-016A,2026-07-10T18:35:11.623776,1.00272131,.0003693,1.8643,82.3288,37.5417,55.8970,0,U,37392,999,5352,0,-.218E-5,0
INTELSAT 18 (IS-18),2011-056A,2026-07-10T17:53:00.667968,1.00272656,.000174,0.0267,284.9466,201.6707,250.2968,0,U,37834,999,5404,0,.62E-6,0
INTELSAT 22 (IS-22),2012-011A,2026-07-10T20:47:30.485184,1.00271136,.0001905,0.0369,66.3408,65.5376,180.8671,0,U,38098,999,742,0,0,0
INTELSAT 19 (IS-19),2012-030A,2026-07-09T21:17:09.157056,1.00271536,.00031269,0.0177,25.6635,96.1223,291.3213,0,U,38356,999,5067,0,-.44E-6,0
INTELSAT 20 (IS-20),2012-043A,2026-07-09T23:41:38.660064,1.00267370,.00033596,0.0436,68.8286,128.7460,154.2151,0,U,38740,999,5097,0,0,0
INTELSAT 21 (IS-21),2012-045A,2026-07-10T18:27:42.342048,1.00270008,.0001731,0.0283,38.5652,96.6288,12.4177,0,U,38749,999,5076,0,0,0
