INTELSAT 902 (IS-902)   
1 26900U 01039A   26191.48563339 -.00000279  00000+0  00000+0 0  9997
2 26900   6.1741  71.4977 0004425  34.7826 306.8480  1.00271489 90929
INTELSAT 904 (IS-904)   
1 27380U 02007A   26191.48936007 -.00000222  00000+0  00000+0 0  9990
2 27380   6.9752  68.9011 0005441  22.8518 341.3603  1.00271875 52004
DIRECTV 5 (TEMPO 1)     
1 27426U 02023A   26191.68762883 -.00000053  00000+0  00000+0 0  9992
2 27426   4.9348  75.0161 0003030  40.0572 310.9704  1.00271003 88357
INTELSAT 905 (IS-905)   
1 27438U 02027A   26191.75355332  .00000096  00000+0  00000+0 0  9990
2 27438   6.8098  69.5124 0003543  44.4113 308.8250  1.00271241 51590
GALAXY 3C (G-3C)        
1 27445U 02030A   26191.54811081 -.00000147  00000+0  00000+0 0  9995
2 27445   3.7909  77.6727 0001529  38.5614 274.7289  1.00270931 46723
INTELSAT 906 (IS-906)   
1 27513U 02041A   26191.79341029  .00000016  00000+0  00000+0 0  9994
2 27513   5.8606  72.6308 0003960  19.3457 186.4930  1.00272251 87262
GALAXY 13 (HORIZONS-1)  
1 27954U 03044A   26191.75103999  .00000140  00000+0  00000+0 0  9993
2 27954   1.4785  83.5644 0002202  21.3779 304.0998  1.00269324 46807
INTELSAT 10-02          
1 28358U 04022A   26191.85186566 -.00000003  00000+0  00000+0 0  9990
2 28358   0.0513 260.4686 0000413 348.4775 345.4882  1.00269666 80799
DIRECTV 8               
1 28659U 05019A   26191.63218455  .00000011  00000+0  00000+0 0  9998
2 28659   0.0155  71.9429 0003038  51.6955 273.4479  1.00270880 77309
GALAXY 28 (G-28)        
1 28702U 05022A   26191.70409558 -.00000194  00000+0  00000+0 0  9998
2 28702   3.3561  78.6398 0002092  37.6231  38.7345  1.00271636 52211
GALAXY 16 (G-16)        
1 29236U 06023A   26191.68979551 -.00000118  00000+0  00000+0 0  9991
2 29236   0.0344 117.7497 0002455   0.1948 319.9896  1.00271406 73207
DIRECTV 9S              
1 29494U 06043A   26191.68944884 -.00000107  00000+0  00000+0 0  9998
2 29494   2.4784  80.6195 0005011  31.8436 323.1465  1.00270967 51615
GALAXY 17 (G-17)        
1 31307U 07016B   26191.55001750 -.00000199  00000+0  00000+0 0  9998
2 31307   3.0278  79.6059 0003581  31.4253 290.4239  1.00271070 70034
INTELSAT 11 (IS-11)     
1 32253U 07044B   26191.78510014 -.00000044  00000+0  00000+0 0  9992
2 32253   3.6238  78.3830 0004010  99.4349  55.4880  0.99050697 68684
HORIZONS-2              
1 32388U 07063B   26191.76612007 -.00000247  00000+0  00000+0 0  9990
2 32388   2.6599  80.3366 0003582  17.4423  32.9149  1.00270688 68051
DIRECTV 11              
1 32729U 08013A   26191.62530100 -.00000116  00000+0  00000+0 0  9998
2 32729   0.0389 213.3746 0000067 311.6301 249.4616  1.00270644 45824
GALAXY 18 (G-18)        
1 32951U 08024A   26191.75632669  .00000000  00000+0  00000+0 0  9995
2 32951   0.0250  39.1833 0002778  85.6822 313.0900  1.00270149 46089
GALAXY 19 (G-19)        
1 33376U 08045A   26191.68988219 -.00000130  00000+0  00000+0 0  9992
2 33376   0.0540 249.5434 0002347 228.4581 321.9550  1.00272350 65130
FM-5                    
1 35493U 09034A   26191.31906358 -.00000189  00000+0  00000+0 0  9991
2 35493   0.0334 277.7695 0000348  38.0404   1.1277  1.00270176 46870
INTELSAT 14 (IS-14)     
1 36097U 09064A   26191.84311330 -.00000265  00000+0  00000+0 0  9998
2 36097   0.0174  24.7376 0002252  90.2183  72.3369  1.00271550 60841
INTELSAT 15 (IS-15)     
1 36106U 09067A   26191.86892507 -.00000176  00000+0  00000+0 0  9995
2 36106   0.0112  53.5658 0002120  63.9585 209.2267  1.00271450 41468
DIRECTV 12              
1 36131U 09075A   26191.40395524 -.00000093  00000+0  00000+0 0  9997
2 36131   0.0378 197.5077 0000394  15.9281 117.5818  1.00270757 46787
INTELSAT 16 (IS-16)     
1 36397U 10006A   26191.83695993 -.00000236  00000+0  00000+0 0  9996
2 36397   0.0121  16.8319 0002249 115.4696  21.5567  1.00271371 59890
XM-5                    
1 37185U 10053A   26191.30635405 -.00000012  00000+0  00000+0 0  9990
2 37185   0.0614 268.0589 0001858 315.7617  59.5021  1.00272157 57714
INTELSAT 17 (IS-17)     
1 37238U 10065B   26191.86511171  .00000007  00000+0  00000+0 0  9999
2 37238   0.0170  89.3725 0002678  23.4957 193.3450  1.00271827 53483
INTELSAT 28 (IS-28)     
1 37392U 11016A   26191.77444009 -.00000218  00000+0  00000+0 0  9997
2 37392   1.8643  82.3288 0003693  37.5417  55.8970  1.00272131 53523
INTELSAT 18 (IS-18)     
1 37834U 11056A   26191.74514662  .00000062  00000+0  00000+0 0  9998
2 37834   0.0267 284.9466 0001740 201.6707 250.2968  1.00272656 54040
INTELSAT 22 (IS-22)     
1 38098U 12011A   26191.86632506  .00000000  00000+0  00000+0 0  9996
2 38098   0.0369  66.3408 0001905  65.5376 180.8671  1.00271136  7427
INTELSAT 19 (IS-19)     
1 38356U 12030A   26190.88691154 -.00000044  00000+0  00000+0 0  9998
2 38356   0.0177  25.6635 0003126  96.1223 291.3213  1.00271536 50678
INTELSAT 20 (IS-20)     
1 38740U 12043A   26190.98725301  .00000000  00000+0  00000+0 0  9993
2 38740   0.0436  68.8286 0003359 128.7460 154.2151  1.00267370 50979
INTELSAT 21 (IS-21)     
1 38749U 12045A   26191.76924007  .00000000  00000+0  00000+0 0  9995
2 38749   0.0283  38.5652 0001731  96.6288  12.4177  1.00270008 50764
